{"type": "FeatureCollection", "features": [ {"type": "Feature", "properties": {"norad_id": 34011, "name": "COSMOS 2251 DEB", "group": "cosmos-2251-debris", "lat": -27.46313319626442, "lon": -16.942282412812144, "alt_km": 765.8960812849164, "timestamp": "2025-12-01T03:58:49.144606+00:00", "meta": {"OBJECT_NAME": "COSMOS 2251 DEB", "OBJECT_ID": "1993-036GW", "EPOCH": "2025-11-30T08:07:41.758464", "MEAN_MOTION": 14.41676419, "ECCENTRICITY": 0.0035139, "INCLINATION": 74.0151, "RA_OF_ASC_NODE": 353.1597, "ARG_OF_PERICENTER": 80.8521, "MEAN_ANOMALY": 279.6607, "EPHEMERIS_TYPE": 0, "CLASSIFICATION_TYPE": "U", "NORAD_CAT_ID": 34011, "ELEMENT_SET_NO": 999, "REV_AT_EPOCH": 87737, "BSTAR": 0.00073577628, "MEAN_MOTION_DOT": 2.39e-05, "MEAN_MOTION_DDOT": 0, "GROUP": "cosmos-2251-debris"}, "tle": {"line1": "1 34011U 93036GW  25334.33867776  .00002390  00000+0  73578-3 0  9990", "line2": "2 34011  74.0151 353.1597 0035139  80.8521 279.6607 14.41676419877379"}}, "geometry": {"type": "Point", "coordinates": [-16.942282412812144, -27.46313319626442]}}, {"type": "Feature", "properties": {"norad_id": 34014, "name": "COSMOS 2251 DEB", "group": "cosmos-2251-debris", "lat": 43.748401725517084, "lon": -40.77509426435912, "alt_km": 628.0738430789461, "timestamp": "2025-12-01T03:58:49.144617+00:00", "meta": {"OBJECT_NAME": "COSMOS 2251 DEB", "OBJECT_ID": "1993-036GZ", "EPOCH": "2025-11-30T08:53:22.668864", "MEAN_MOTION": 14.72884957, "ECCENTRICITY": 0.00367085, "INCLINATION": 74.0165, "RA_OF_ASC_NODE": 304.851, "ARG_OF_PERICENTER": 88.0369, "MEAN_ANOMALY": 62.2868, "EPHEMERIS_TYPE": 0, "CLASSIFICATION_TYPE": "U", "NORAD_CAT_ID": 34014, "ELEMENT_SET_NO": 999, "REV_AT_EPOCH": 89121, "BSTAR": 0.0011332224, "MEAN_MOTION_DOT": 7.313e-05, "MEAN_MOTION_DDOT": 0, "GROUP": "cosmos-2251-debris"}, "tle": {"line1": "1 34014U 93036GZ  25334.37040126  .00007313  00000+0  11332-2 0  9998", "line2": "2 34014  74.0165 304.8510 0036708  88.0369  62.2868 14.72884957891214"}}, "geometry": {"type": "Point", "coordinates": [-40.77509426435912, 43.748401725517084]}}, {"type": "Feature", "properties": {"norad_id": 34015, "name": "COSMOS 2251 DEB", "group": "cosmos-2251-debris", "lat": -20.077077860756145, "lon": 175.51846518282898, "alt_km": 690.3976951784925, "timestamp": "2025-12-01T03:58:49.144627+00:00", "meta": {"OBJECT_NAME": "COSMOS 2251 DEB", "OBJECT_ID": "1993-036HA", "EPOCH": "2025-11-30T18:35:23.300736", "MEAN_MOTION": 14.60023405, "ECCENTRICITY": 0.0021311, "INCLINATION": 74.0241, "RA_OF_ASC_NODE": 182.2756, "ARG_OF_PERICENTER": 279.8954, "MEAN_ANOMALY": 163.3707, "EPHEMERIS_TYPE": 0, "CLASSIFICATION_TYPE": "U", "NORAD_CAT_ID": 34015, "ELEMENT_SET_NO": 999, "REV_AT_EPOCH": 88356, "BSTAR": 0.001153, "MEAN_MOTION_DOT": 5.528e-05, "MEAN_MOTION_DDOT": 0, "GROUP": "cosmos-2251-debris"}, "tle": {"line1": "1 34015U 93036HA  25334.77457524  .00005528  00000+0  11530-2 0  9993", "line2": "2 34015  74.0241 182.2756 0021311 279.8954 163.3707 14.60023405883568"}}, "geometry": {"type": "Point", "coordinates": [175.51846518282898, -20.077077860756145]}}, {"type": "Feature", "properties": {"norad_id": 34018, "name": "COSMOS 2251 DEB", "group": "cosmos-2251-debris", "lat": 5.669097513888503, "lon": -69.93690456759012, "alt_km": 784.083233143343, "timestamp": "2025-12-01T03:58:49.144637+00:00", "meta": {"OBJECT_NAME": "COSMOS 2251 DEB", "OBJECT_ID": "1993-036HD", "EPOCH": "2025-11-30T11:49:36.610176", "MEAN_MOTION": 13.81040416, "ECCENTRICITY": 0.02644912, "INCLINATION": 73.8763, "RA_OF_ASC_NODE": 112.8488, "ARG_OF_PERICENTER": 151.0294, "MEAN_ANOMALY": 276.7063, "EPHEMERIS_TYPE": 0, "CLASSIFICATION_TYPE": "U", "NORAD_CAT_ID": 34018, "ELEMENT_SET_NO": 999, "REV_AT_EPOCH": 84488, "BSTAR": 0.00065852365, "MEAN_MOTION_DOT": 8.85e-06, "MEAN_MOTION_DDOT": 0, "GROUP": "cosmos-2251-debris"}, "tle": {"line1": "1 34018U 93036HD  25334.49278484  .00000885  00000+0  65852-3 0  9999", "line2": "2 34018  73.8763 112.8488 0264491 151.0294 276.7063 13.81040416844883"}}, "geometry": {"type": "Point", "coordinates": [-69.93690456759012, 5.669097513888503]}}, {"type": "Feature", "properties": {"norad_id": 34019, "name": "COSMOS 2251 DEB", "group": "cosmos-2251-debris", "lat": -70.47576535873347, "lon": -53.72355098079428, "alt_km": 741.1107170974301, "timestamp": "2025-12-01T03:58:49.144648+00:00", "meta": {"OBJECT_NAME": "COSMOS 2251 DEB", "OBJECT_ID": "1993-036HE", "EPOCH": "2025-11-30T17:30:09.061056", "MEAN_MOTION": 14.33835749, "ECCENTRICITY": 0.0062655, "INCLINATION": 73.9544, "RA_OF_ASC_NODE": 72.8253, "ARG_OF_PERICENTER": 255.7525, "MEAN_ANOMALY": 270.296, "EPHEMERIS_TYPE": 0, "CLASSIFICATION_TYPE": "U", "NORAD_CAT_ID": 34019, "ELEMENT_SET_NO": 999, "REV_AT_EPOCH": 87348, "BSTAR": 0.00098367, "MEAN_MOTION_DOT": 2.772e-05, "MEAN_MOTION_DDOT": 0, "GROUP": "cosmos-2251-debris"}, "tle": {"line1": "1 34019U 93036HE  25334.72927154  .00002772  00000+0  98367-3 0  9995", "line2": "2 34019  73.9544  72.8253 0062655 255.7525 270.2960 14.33835749873486"}}, "geometry": {"type": "Point", "coordinates": [-53.72355098079428, -70.47576535873347]}}, {"type": "Feature", "properties": {"norad_id": 34021, "name": "COSMOS 2251 DEB", "group": "cosmos-2251-debris", "lat": 48.48725798231261, "lon": 170.42990412429748, "alt_km": 727.4058610628508, "timestamp": "2025-12-01T03:58:49.144657+00:00", "meta": {"OBJECT_NAME": "COSMOS 2251 DEB", "OBJECT_ID": "1993-036HG", "EPOCH": "2025-11-30T13:05:52.988352", "MEAN_MOTION": 14.49875949, "ECCENTRICITY": 0.0020639, "INCLINATION": 74.034, "RA_OF_ASC_NODE": 152.7222, "ARG_OF_PERICENTER": 297.9948, "MEAN_ANOMALY": 117.7163, "EPHEMERIS_TYPE": 0, "CLASSIFICATION_TYPE": "U", "NORAD_CAT_ID": 34021, "ELEMENT_SET_NO": 999, "REV_AT_EPOCH": 88453, "BSTAR": 0.00041474, "MEAN_MOTION_DOT": 1.579e-05, "MEAN_MOTION_DDOT": 0, "GROUP": "cosmos-2251-debris"}, "tle": {"line1": "1 34021U 93036HG  25334.54575218  .00001579  00000+0  41474-3 0  9999", "line2": "2 34021  74.0340 152.7222 0020639 297.9948 117.7163 14.49875949884533"}}, "geometry": {"type": "Point", "coordinates": [170.42990412429748, 48.48725798231261]}}, {"type": "Feature", "properties": {"norad_id": 34022, "name": "COSMOS 2251 DEB", "group": "cosmos-2251-debris", "lat": -34.89030779472418, "lon": -79.37981064579195, "alt_km": 755.0162380202182, "timestamp": "2025-12-01T03:58:49.144669+00:00", "meta": {"OBJECT_NAME": "COSMOS 2251 DEB", "OBJECT_ID": "1993-036HH", "EPOCH": "2025-11-30T08:52:46.142400", "MEAN_MOTION": 14.38930536, "ECCENTRICITY": 0.00222349, "INCLINATION": 74.0537, "RA_OF_ASC_NODE": 293.5871, "ARG_OF_PERICENTER": 0.9808, "MEAN_ANOMALY": 161.7054, "EPHEMERIS_TYPE": 0, "CLASSIFICATION_TYPE": "U", "NORAD_CAT_ID": 34022, "ELEMENT_SET_NO": 999, "REV_AT_EPOCH": 88017, "BSTAR": 0.00027119013, "MEAN_MOTION_DOT": 8.12e-06, "MEAN_MOTION_DDOT": 0, "GROUP": "cosmos-2251-debris"}, "tle": {"line1": "1 34022U 93036HH  25334.36997850  .00000812  00000+0  27119-3 0  9999", "line2": "2 34022  74.0537 293.5871 0022234   0.9808 161.7054 14.38930536880172"}}, "geometry": {"type": "Point", "coordinates": [-79.37981064579195, -34.89030779472418]}}, {"type": "Feature", "properties": {"norad_id": 34023, "name": "COSMOS 2251 DEB", "group": "cosmos-2251-debris", "lat": 2.874093644127418, "lon": 92.3370739423595, "alt_km": 771.455916359464, "timestamp": "2025-12-01T03:58:49.144679+00:00", "meta": {"OBJECT_NAME": "COSMOS 2251 DEB", "OBJECT_ID": "1993-036HJ", "EPOCH": "2025-11-30T20:46:04.955232", "MEAN_MOTION": 14.40514885, "ECCENTRICITY": 0.0017951, "INCLINATION": 74.0248, "RA_OF_ASC_NODE": 273.717, "ARG_OF_PERICENTER": 11.5393, "MEAN_ANOMALY": 47.5264, "EPHEMERIS_TYPE": 0, "CLASSIFICATION_TYPE": "U", "NORAD_CAT_ID": 34023, "ELEMENT_SET_NO": 999, "REV_AT_EPOCH": 88043, "BSTAR": 0.00037779, "MEAN_MOTION_DOT": 1.178e-05, "MEAN_MOTION_DDOT": 0, "GROUP": "cosmos-2251-debris"}, "tle": {"line1": "1 34023U 93036HJ  25334.86533513  .00001178  00000+0  37779-3 0  9996", "line2": "2 34023  74.0248 273.7170 0017951  11.5393  47.5264 14.40514885880432"}}, "geometry": {"type": "Point", "coordinates": [92.3370739423595, 2.874093644127418]}}, {"type": "Feature", "properties": {"norad_id": 34024, "name": "COSMOS 2251 DEB", "group": "cosmos-2251-debris", "lat": 38.993309423974324, "lon": -9.401185533447867, "alt_km": 756.0572350298935, "timestamp": "2025-12-01T03:58:49.144690+00:00", "meta": {"OBJECT_NAME": "COSMOS 2251 DEB", "OBJECT_ID": "1993-036HK", "EPOCH": "2025-11-30T18:36:27.717120", "MEAN_MOTION": 14.35373969, "ECCENTRICITY": 0.0020504, "INCLINATION": 74.0462, "RA_OF_ASC_NODE": 337.9236, "ARG_OF_PERICENTER": 31.9361, "MEAN_ANOMALY": 151.8141, "EPHEMERIS_TYPE": 0, "CLASSIFICATION_TYPE": "U", "NORAD_CAT_ID": 34024, "ELEMENT_SET_NO": 999, "REV_AT_EPOCH": 87852, "BSTAR": 0.00019702, "MEAN_MOTION_DOT": 5.41e-06, "MEAN_MOTION_DDOT": 0, "GROUP": "cosmos-2251-debris"}, "tle": {"line1": "1 34024U 93036HK  25334.77532080  .00000541  00000+0  19702-3 0  9994", "line2": "2 34024  74.0462 337.9236 0020504  31.9361 151.8141 14.35373969878526"}}, "geometry": {"type": "Point", "coordinates": [-9.401185533447867, 38.993309423974324]}}]}